WGS F5 (USA 243)        
1 39168U 13024A   21295.45220208 -.00000281  00000-0  00000-0 0  9991
2 39168   0.0112 243.3069 0000458 358.0686 260.0539  1.00271232 30144
SES-6                   
1 39172U 13026A   21295.37893660 -.00000258  00000-0  00000-0 0  9991
2 39172   0.0254 301.6733 0002355 280.3072 264.9927  1.00272248 30698
IRNSS-1A                
1 39199U 13034A   21294.01299403  .00000107  00000-0  00000-0 0  9996
2 39199  31.8991  89.0563 0020906 179.2470 181.0579  1.00274595 30324
MUOS-2                  
1 39206U 13036A   21295.55801251  .00000069  00000-0  00000-0 0  9994
2 39206   2.5689  14.5726 0056852 180.2686 220.2354  1.00271808 30169
ALPHASAT                
1 39215U 13038A   21295.24837098  .00000138  00000-0  00000-0 0  9997
2 39215   2.6261  15.8489 0002825 205.6779 283.6731  1.00273288 26983
INSAT-3D                
1 39216U 13038B   21295.50340000 -.00000153  00000-0  00000-0 0  9997
2 39216   0.0435 107.0784 0001437 110.2759  77.1349  1.00271935 30060
WGS F6 (USA 244)        
1 39222U 13041A   21295.50357137  .00000093  00000-0  00000-0 0  9999
2 39222   0.0138 243.7071 0000602  37.9021 155.6256  1.00268711 29014
ES'HAIL 1               
1 39233U 13044A   21295.24854542  .00000146  00000-0  00000-0 0  9996
2 39233   0.0593  40.2206 0001945 168.1230 297.5192  1.00273474 29603
GSAT-7                  
1 39234U 13044B   21295.47356832 -.00000074  00000-0  00000-0 0  9992
2 39234   0.0788  95.9976 0009043 158.1520  21.4695  1.00271927 28296
AMOS-4                  
1 39237U 13045A   21295.11281709  .00000009  00000-0  00000-0 0  9994
2 39237   0.0289 126.2604 0001757 104.9621 265.1760  1.00272922 29923
AEHF-3 (USA 246)        
1 39256U 13050A   21295.57629612  .00000139  00000-0  00000-0 0  9994
2 39256   1.1637  64.7202 0056828 184.3295 194.5482  1.00269317 28649
ASTRA 2E                
1 39285U 13056A   21295.27202282  .00000153  00000-0  00000-0 0  9995
2 39285   0.0668 342.5974 0002706 229.8830 304.8613  1.00270752 29404
FM-6                    
1 39360U 13058A   21295.50740897 -.00000013  00000-0  00000-0 0  9992
2 39360   0.0349 274.7583 0000559 158.3693  24.5646  1.00269513 29026
RADUGA-1M 3             
1 39375U 13062A   21294.83799334  .00000158  00000-0  00000+0 0  9996
2 39375   1.6350  92.2783 0002023 358.1114 276.7639  1.00275013 29083
SES-8                   
1 39460U 13071A   21295.47775479 -.00000267  00000-0  00000-0 0  9999
2 39460   0.0143 224.7958 0001376 310.5293 122.8211  1.00272094 27392
INMARSAT 5-F1           
1 39476U 13073A   21295.47121344  .00000031  00000-0  00000-0 0  9992
2 39476   0.0177 239.5431 0000669  13.3081  10.4914  1.00270827 28556
TKSAT-1 (TUPAC KATARI)  
1 39481U 13075A   21295.51316538 -.00000191  00000-0  00000-0 0  9994
2 39481   0.0180  70.7936 0002228 142.0206 275.8924  1.00269113 28568
EXPRESS-AM5             
1 39487U 13077A   21295.55843161 -.00000276  00000-0  00000-0 0  9997
2 39487   0.0174 304.2564 0000761  68.7873 359.2633  1.00271330 29326
GSAT-14                 
1 39498U 14001A   21295.40178775 -.00000074  00000-0  00000-0 0  9999
2 39498   0.0549  97.8356 0005776 137.7282  14.1538  1.00272438 28375
THAICOM 6               
1 39500U 14002A   21295.43243687 -.00000119  00000-0  00000-0 0  9992
2 39500   0.0686 114.1525 0004088  56.9744  94.1455  1.00273017 28428
TDRS 12                 
1 39504U 14004A   21295.45045552 -.00000271  00000-0  00000-0 0  9990
2 39504   4.0885 343.4847 0002128 191.9390 336.5977  1.00280769 27244
ABS-2                   
1 39508U 14006A   21295.47374275 -.00000083  00000-0  00000-0 0  9996
2 39508   0.0118  74.0396 0002831 136.9663  65.5960  1.00270335 28253
ATHENA-FIDUS            
1 39509U 14006B   21295.27202282  .00000157  00000-0  00000-0 0  9994
2 39509   0.0130 264.3231 0001734 318.0913 304.2573  1.00273658 28043
TURKSAT 4A              
1 39522U 14007A   21295.46711418  .00000149  00000-0  00000-0 0  9998
2 39522   0.0261 260.9498 0004354 332.0740   8.2556  1.00272315 27955
EXPRESS-AT1             
1 39612U 14010A   21295.61346628  .00000081  00000-0  00000-0 0  9991
2 39612   0.0159 312.5991 0000407 341.1234  14.4193  1.00273813 28015
EXPRESS-AT2             
1 39613U 14010B   21295.55843161 -.00000278  00000-0  00000-0 0  9998
2 39613   0.0159 308.4288 0000754 313.2614 110.4224  1.00271709 27851
AMAZONAS 4A             
1 39616U 14011A   21295.53243674 -.00000249  00000-0  00000-0 0  9991
2 39616   0.1166  80.2630 0003472 134.6215 293.9469  1.00275794 27666
ASTRA 5B                
1 39617U 14011B   21295.46493373  .00000158  00000-0  00000-0 0  9995
2 39617   0.0770 300.0644 0004491 273.2254  16.7151  1.00272449 27630
IRNSS-1B                
1 39635U 14017A   21294.01299403  .00000079  00000-0  00000-0 0  9991
2 39635  29.2348 269.0925 0019593 190.0094 350.1365  1.00271976 27745
LUCH 5V                 
1 39727U 14023A   21295.47766757 -.00000264  00000-0  00000-0 0  9999
2 39727   0.9534  67.5834 0002366 146.8643  83.3455  1.00268536 27326
KAZSAT-3                
1 39728U 14023B   21295.47042847  .00000063  00000-0  00000-0 0  9993
2 39728   0.0105 222.3230 0000300 239.4359 157.2742  1.00272665 25418
EUTELSAT 3B             
1 39773U 14030A   21295.31579064  .00000023  00000-0  00000-0 0  9996
2 39773   0.0679   6.7833 0006030 191.7448 309.2474  1.00271123 27031
USA 254                 
1 40100U 14043B   21295.37605839 -.00000196  00000-0  00000+0 0  9993
2 40100   0.3154  97.0399 0000505 263.9165 110.7664  0.99126600  1716
ASIASAT 8 (AMOS-7)      
1 40107U 14046A   21295.31448236 -.00000030  00000-0  00000-0 0  9991
2 40107   0.0429 106.0667 0002341  93.7338 300.5196  1.00271834 85124
ASIASAT 6               
1 40141U 14052A   21295.57865986 -.00000359  00000-0  00000-0 0  9993
2 40141   0.0058 253.5459 0000862 301.3249 164.6091  1.00272575 26123
OPTUS 10                
1 40146U 14054A   21295.32739476 -.00000144  00000-0  00000-0 0  9999
2 40146   0.0476 270.1534 0004314 289.8648 104.8512  1.00270556 25984
MEASAT-3B               
1 40147U 14054B   21295.47705705 -.00000238  00000-0  00000-0 0  9998
2 40147   0.0433  30.4820 0001238 217.3557  46.5530  1.00270093 25876
LUCH (OLYMP)            
1 40258U 14058A   21295.47069014  .00000052  00000-0  00000+0 0  9993
2 40258   0.0214 301.0008 0001736 289.2353  30.3007  1.00273604 25901
HIMAWARI-8              
1 40267U 14060A   21295.41504492 -.00000272  00000-0  00000-0 0  9990
2 40267   0.0143 201.6360 0001387  57.1895  62.3253  1.00270706 25721
IRNSS-1C                
1 40269U 14061A   21295.50340000 -.00000156  00000-0  00000-0 0  9997
2 40269   2.4921 140.7574 0019920   8.9568 145.7476  1.00270663 25653
INTELSAT 30 (IS-30)     
1 40271U 14062A   21295.51159545 -.00000147  00000-0  00000-0 0  9994
2 40271   0.0167 257.0997 0001819 207.4119  15.7881  1.00271724 25564
ARSAT 1                 
1 40272U 14062B   21295.53243674 -.00000256  00000-0  00000-0 0  9995
2 40272   0.0196 279.8736 0001981 293.0567 298.1494  1.00272482 25589
EXPRESS-AM6             
1 40277U 14064A   21295.61285576  .00000101  00000-0  00000-0 0  9996
2 40277   0.0225 293.0746 0000096 180.5486 191.2883  1.00274011 25633
GSAT-16                 
1 40332U 14078A   21295.46973072  .00000088  00000-0  00000-0 0  9995
2 40332   0.0553  90.9004 0004148  29.6298 134.7553  1.00272885 25077
DIRECTV 14              
1 40333U 14078B   21295.23098123 -.00000122  00000-0  00000-0 0  9996
2 40333   0.0354 107.5197 0000120  24.4314 242.8696  1.00271430 25022
YAMAL 401               
1 40345U 14082A   21295.51089483 -.00000224  00000-0  00000+0 0  9996
2 40345   0.0174 230.8543 0000696  91.1261 343.0286  1.00270601 25376
ASTRA 2G                
1 40364U 14089A   21295.24906873  .00000153  00000-0  00000-0 0  9996
2 40364   0.0252  59.2676 0000992  29.4034  60.0657  1.00273185 24934
FENGYUN 2G              
1 40367U 14090A   21295.47862698 -.00000296  00000-0  00000-0 0  9991
2 40367   1.3394  91.5286 0002402 259.1162 312.3244  1.00265154 24961
MUOS-3                  
1 40374U 15002A   21295.31204025 -.00000125  00000-0  00000-0 0  9991
2 40374   2.5450   3.3828 0059082 180.6317 303.8389  1.00272893 24552
INMARSAT 5-F2           
1 40384U 15005A   21295.45061889 -.00000282  00000-0  00000-0 0  9993
2 40384   0.0193 245.2942 0000813  49.7813 203.2357  1.00269645 23961
ABS-3A                  
1 40424U 15010A   21295.31465681 -.00000023  00000-0  00000-0 0  9990
2 40424   0.0148 247.4605 0002396 224.2162  29.5461  1.00272681 24365
EUTELSAT 115 WEST B     
1 40425U 15010B   21295.15410354 -.00000023  00000-0  00000-0 0  9990
2 40425   0.0201  75.0314 0000198 338.6660 277.7115  1.00272909 24365
EXPRESS-AM7             
1 40505U 15012A   21295.46676530  .00000154  00000-0  00000-0 0  9999
2 40505   0.0134 264.1763 0002910 321.6560  13.3479  1.00269998 23970
IRNSS-1D                
1 40547U 15018A   21295.33759517 -.00000297  00000-0  00000-0 0  9993
2 40547  29.0659 269.1275 0018277 187.7867 167.3937  1.00271892 23959
BEIDOU 17               
1 40549U 15019A   21295.44687556 -.00000155  00000-0  00000-0 0  9994
2 40549  52.2907 315.5191 0038121 189.9024 140.1080  1.00293891 24049
THOR 7                  
1 40613U 15022A   21295.31509288 -.00000005  00000-0  00000-0 0  9995
2 40613   0.0400 105.3481 0002695 108.6766 289.7377  1.00271999 23790
TURKMENALEM52E/MONACOSAT
1 40617U 15023A   21295.46912020  .00000107  00000-0  00000-0 0  9990
2 40617   0.0174 256.1362 0003045 311.5402  44.3451  1.00268761 23800
DIRECTV 15              
1 40663U 15026A   21295.51733580 -.00000099  00000-0  00000-0 0  9993
2 40663   0.0252 117.4105 0000489 148.2668 208.8863  1.00274641 23437
SKY MEXICO-1            
1 40664U 15026B   21295.53243674 -.00000231  00000-0  00000-0 0  9994
2 40664   0.0147 280.4457 0002251 293.3522 290.3137  1.00272616 23421
